[{"OBJECT_NAME":"SJ-9B","OBJECT_ID":"2012-056B","EPOCH":"2026-03-09T22:20:09.891456","MEAN_MOTION":14.90900926,"ECCENTRICITY":0.00151866,"INCLINATION":97.5927,"RA_OF_ASC_NODE":56.7246,"ARG_OF_PERICENTER":178.8614,"MEAN_ANOMALY":181.2642,"EPHEMERIS_TYPE":0,"CLASSIFICATION_TYPE":"U","NORAD_CAT_ID":38861,"ELEMENT_SET_NO":999,"REV_AT_EPOCH":72493,"BSTAR":0.00027985041,"MEAN_MOTION_DOT":2.712e-5,"MEAN_MOTION_DDOT":0},{"OBJECT_NAME":"SL-14 R\/B","OBJECT_ID":"1988-093B","EPOCH":"2026-03-09T22:21:05.482944","MEAN_MOTION":14.85656883,"ECCENTRICITY":0.00217506,"INCLINATION":82.5306,"RA_OF_ASC_NODE":41.8167,"ARG_OF_PERICENTER":40.7424,"MEAN_ANOMALY":18.5334,"EPHEMERIS_TYPE":0,"CLASSIFICATION_TYPE":"U","NORAD_CAT_ID":19574,"ELEMENT_SET_NO":999,"REV_AT_EPOCH":105,"BSTAR":8.475997e-5,"MEAN_MOTION_DOT":7.62e-6,"MEAN_MOTION_DDOT":0}]
